ONEWEB-0319             
1 49105U 21075AG  24323.88098679  .00000056  00000+0  11026-3 0  9996
2 49105  87.9071 120.4932 0001653 111.4077 248.7231 13.17649086157847
ONEWEB-0323             
1 49106U 21075AH  24323.83129079  .00000040  00000+0  74681-4 0  9991
2 49106  87.8851 105.2270 0001879 123.9388 236.1920 13.12442632159089
ONEWEB-0329             
1 49107U 21075AJ  24324.19317885  .00000011  00000+0 -45697-5 0  9991
2 49107  87.9076 120.4355 0001491 101.6969 258.4330 13.17648358158855
ONEWEB-0330             
1 49108U 21075AK  24324.19486654  .00000019  00000+0  16843-4 0  9990
2 49108  87.9077 120.4366 0001319  99.3029 260.8251 13.17648687158896
ONEWEB-0292             
1 49186U 21083A   24324.09961919 -.00000170  00000+0 -50159-3 0  9993
2 49186  87.8927  74.6484 0001781 106.8096 253.3229 13.13471381156720
ONEWEB-0303             
1 49187U 21083B   24323.85757406  .00000050  00000+0  94681-4 0  9995
2 49187  87.9094  89.9376 0001763 105.8655 254.2672 13.18685731154154
ONEWEB-0306             
1 49188U 21083C   24323.84806685 -.00000350  00000+0 -92152-3 0  9994
2 49188  87.9092  89.9254 0001472  94.8525 265.2776 13.18685143154196
ONEWEB-0307             
1 49189U 21083D   24323.86553181 -.00000040  00000+0 -14458-3 0  9996
2 49189  87.8929  74.6968 0001297  95.6498 264.4779 13.13472239155405
